[{"OBJECT_NAME":"STARLINK-30295","OBJECT_ID":"2023-124W","EPOCH":"2026-03-09T16:33:04.419936","MEAN_MOTION":15.30187499,"ECCENTRICITY":0.00010099,"INCLINATION":53.1601,"RA_OF_ASC_NODE":207.0693,"ARG_OF_PERICENTER":107.1458,"MEAN_ANOMALY":252.9653,"EPHEMERIS_TYPE":0,"CLASSIFICATION_TYPE":"U","NORAD_CAT_ID":57683,"ELEMENT_SET_NO":999,"REV_AT_EPOCH":14356,"BSTAR":-2.568348e-6,"MEAN_MOTION_DOT":-4.35e-6,"MEAN_MOTION_DDOT":0},{"OBJECT_NAME":"NEXSAT-1","OBJECT_ID":"2024-024E","EPOCH":"2026-03-09T22:47:24.778176","MEAN_MOTION":15.32166372,"ECCENTRICITY":0.00099795,"INCLINATION":97.3124,"RA_OF_ASC_NODE":144.1918,"ARG_OF_PERICENTER":108.5709,"MEAN_ANOMALY":251.6617,"EPHEMERIS_TYPE":0,"CLASSIFICATION_TYPE":"U","NORAD_CAT_ID":58921,"ELEMENT_SET_NO":999,"REV_AT_EPOCH":11669,"BSTAR":0.00031433612,"MEAN_MOTION_DOT":9.702e-5,"MEAN_MOTION_DDOT":0}]
